{
  "norad_id": 68879,
  "name": "KUIPER-00488",
  "history": [
    {
      "epoch": "2026-05-02T10:00:03.000096Z",
      "apogee_km": 466.63735208078197,
      "perigee_km": 451.0572322757662,
      "latitude_deg": 41.26322840254564,
      "longitude_deg": -129.8253512862034,
      "height_km": 455.05494754012454,
      "semi_major_axis_km": 6836.984292178274,
      "eccentricity": 0.0011394,
      "inclination_deg": 51.8662,
      "raan_deg": 103.7557,
      "arg_perigee_deg": 138.669,
      "mean_anomaly_deg": 344.6238,
      "mean_motion_rev_day": 15.35698248
    }
  ]
}