{"fetched_at":"2026-05-03T06:27:58Z","count":17151,"tles":[{"name":"KUIPER-00488","line1":"1 68879U 26095R   26122.41670139  .00067928  00000+0  19169-2 0  9993","line2":"2 68879  51.8662 103.7557 0011394 138.6690 344.6238 15.35698248  1908","category":"Other"}]}